NORAD_CAT_ID,OBJECT_NAME,OBJECT_TYPE,EPOCH,MEAN_MOTION,ECCENTRICITY,INCLINATION,RA_OF_ASC_NODE,ARG_OF_PERICENTER,MEAN_ANOMALY,BSTAR,MEAN_MOTION_DOT,MEAN_MOTION_DDOT,TLE_LINE0,TLE_LINE1,TLE_LINE2,SEMIMAJOR_AXIS,PERIOD,APOGEE,PERIGEE,DECAYED
56478.0,STARLINK-6041,PAYLOAD,2024-06-25 13:58:12,14.98329574,0.0003098,70.0002,253.0091,262.8818,97.1989,-6.5206e-05,-8.71e-06,0.0,0 STARLINK-6041,1 56478U 23064AG  24177.58208643 -.00000871  00000-0 -65206-4 0  9993,2 56478  70.0002 253.0091 0003098 262.8818  97.1989 14.98329574 62559,6950.194,96.107,574.212,569.906,0.0
56478.0,STARLINK-6041,PAYLOAD,2024-06-25 15:34:20,14.98329528,0.0003108,70.0001,252.8407,263.6442,96.4364,-6.4343e-05,-8.61e-06,0.0,0 STARLINK-6041,1 56478U 23064AG  24177.64884645 -.00000861  00000-0 -64343-4 0  9992,2 56478  70.0001 252.8407 0003108 263.6442  96.4364 14.98329528 62569,6950.194,96.107,574.219,569.899,0.0
56478.0,STARLINK-6041,PAYLOAD,2024-06-26 10:47:56,14.98333352,0.0003198,69.9999,250.8203,265.2974,94.782,-3.0208e-06,-1.29e-06,0.0,0 STARLINK-6041,1 56478U 23064AG  24178.44996062 -.00000129  00000-0 -30208-5 0  9999,2 56478  69.9999 250.8203 0003198 265.2974  94.7820 14.98333352 63043,6950.183,96.107,574.27,569.825,0.0
56478.0,STARLINK-6041,PAYLOAD,2024-06-27 12:26:05,14.98328374,0.0003423,69.9992,248.1254,270.6459,89.4308,1.9473e-05,1.39e-06,0.0,0 STARLINK-6041,1 56478U 23064AG  24179.51812253  .00000139  00000-0  19473-4 0  9996,2 56478  69.9992 248.1254 0003423 270.6459  89.4308 14.98328374 63209,6950.198,96.107,574.442,569.684,0.0
56478.0,STARLINK-6041,PAYLOAD,2024-06-27 22:02:54,14.98326444,0.0003415,69.9991,247.1152,271.1361,88.9407,-4.4861e-05,-6.28e-06,0.0,0 STARLINK-6041,1 56478U 23064AG  24179.91868572 -.00000628  00000-0 -44861-4 0  9999,2 56478  69.9991 247.1152 0003415 271.1361  88.9407 14.98326444 62909,6950.204,96.107,574.442,569.695,0.0
56478.0,STARLINK-6041,PAYLOAD,2024-06-28 12:28:06,14.98326458,0.0003544,69.9988,245.5997,267.9837,92.0916,8.6642e-05,9.41e-06,0.0,0 STARLINK-6041,1 56478U 23064AG  24180.51952219  .00000941  00000-0  86642-4 0  9998,2 56478  69.9988 245.5997 0003544 267.9837  92.0916 14.98326458 63354,6950.204,96.107,574.532,569.606,0.0
56478.0,STARLINK-6041,PAYLOAD,2024-06-28 14:04:14,14.98320181,0.0003413,69.9989,245.4316,266.7948,93.2821,0.00024509,2.832e-05,0.0,0 STARLINK-6041,1 56478U 23064AG  24180.58628236  .00002832  00000-0  24509-3 0  9998,2 56478  69.9989 245.4316 0003413 266.7948  93.2821 14.98320181 63001,6950.223,96.108,574.46,569.716,0.0
56478.0,STARLINK-6041,PAYLOAD,2024-06-28 22:04:54,14.98335477,0.000345,69.9989,244.5899,270.1086,89.9678,5.5169e-05,5.65e-06,0.0,0 STARLINK-6041,1 56478U 23064AG  24180.92007646  .00000565  00000-0  55169-4 0  9990,2 56478  69.9989 244.5899 0003450 270.1086  89.9678 14.98335477 63051,6950.176,96.107,574.439,569.643,0.0
56478.0,STARLINK-6041,PAYLOAD,2024-06-29 12:30:06,14.98335794,0.0003413,69.9988,243.0753,270.0342,90.0426,7.5943e-05,8.13e-06,0.0,0 STARLINK-6041,1 56478U 23064AG  24181.52091413  .00000813  00000-0  75943-4 0  9990,2 56478  69.9988 243.0753 0003413 270.0342  90.0426 14.98335794 63502,6950.175,96.107,574.412,569.668,0.0
56478.0,STARLINK-6041,PAYLOAD,2024-06-29 14:06:14,14.98336822,0.0003415,69.9988,242.907,270.1,89.9768,8.5573e-05,9.28e-06,0.0,0 STARLINK-6041,1 56478U 23064AG  24181.58767295  .00000928  00000-0  85573-4 0  9991,2 56478  69.9988 242.9070 0003415 270.1000  89.9768 14.98336822 63156,6950.172,96.107,574.41,569.663,0.0
56478.0,STARLINK-6041,PAYLOAD,2024-06-30 04:31:28,14.98315501,0.0003417,69.9995,241.3929,272.1606,87.9161,6.8801e-05,7.28e-06,0.0,0 STARLINK-6041,1 56478U 23064AG  24182.18852754  .00000728  00000-0  68801-4 0  9996,2 56478  69.9995 241.3929 0003417 272.1606  87.9161 14.98315501 63602,6950.238,96.108,574.478,569.728,0.0
56478.0,STARLINK-6041,PAYLOAD,2024-06-30 14:08:17,14.98318932,0.0003323,69.9996,240.3843,265.4195,94.6584,-2.331e-05,-3.71e-06,0.0,0 STARLINK-6041,1 56478U 23064AG  24182.58908923 -.00000371  00000-0 -23310-4 0  9992,2 56478  69.9996 240.3843 0003323 265.4195  94.6584 14.98318932 63303,6950.227,96.108,574.402,569.783,0.0
56478.0,STARLINK-6041,PAYLOAD,2024-06-30 20:32:48,14.98360056,0.0003477,69.999,239.7089,273.0465,87.0296,-0.00058933,-7.123e-05,0.0,0 STARLINK-6041,1 56478U 23064AG  24182.85611596 -.00007123  00000-0 -58933-3 0  9999,2 56478  69.9990 239.7089 0003477 273.0465  87.0296 14.98360056 63700,6950.1,96.105,574.381,569.548,0.0
56478.0,STARLINK-6041,PAYLOAD,2024-07-01 04:33:29,14.98330203,0.0003551,69.9981,238.867,268.3883,91.6869,-1.1657e-06,-1.07e-06,0.0,0 STARLINK-6041,1 56478U 23064AG  24183.18992132 -.00000107  00000-0 -11657-5 0  9993,2 56478  69.9981 238.8670 0003551 268.3883  91.6869 14.98330203 63753,6950.192,96.107,574.525,569.589,0.0
56478.0,STARLINK-6041,PAYLOAD,2024-07-01 14:10:17,14.98336248,0.0003588,69.9981,237.8572,267.6139,92.4609,4.6029e-05,4.56e-06,0.0,0 STARLINK-6041,1 56478U 23064AG  24183.59047551  .00000456  00000-0  46029-4 0  9999,2 56478  69.9981 237.8572 0003588 267.6139  92.4609 14.98336248 63452,6950.174,96.107,574.532,569.545,0.0
56478.0,STARLINK-6041,PAYLOAD,2024-07-01 20:34:49,14.98346565,0.0003711,69.9981,237.1838,251.5376,108.538,-0.00031712,-3.877e-05,0.0,0 STARLINK-6041,1 56478U 23064AG  24183.85751457 -.00003877  00000-0 -31712-3 0  9999,2 56478  69.9981 237.1838 0003711 251.5376 108.5380 14.98346565 63855,6950.142,96.106,574.586,569.427,0.0
56478.0,STARLINK-6041,PAYLOAD,2024-07-01 22:10:57,14.98333661,0.0003587,69.9981,237.0156,266.2128,93.8621,-8.8853e-05,-1.153e-05,0.0,0 STARLINK-6041,1 56478U 23064AG  24183.92427916 -.00001153  00000-0 -88853-4 0  9991,2 56478  69.9981 237.0156 0003587 266.2128  93.8621 14.98333661 63505,6950.182,96.107,574.54,569.554,0.0
56478.0,STARLINK-6041,PAYLOAD,2024-07-02 04:35:30,14.9832308,0.0003542,69.9981,236.3425,267.4527,92.6227,2.9011e-05,2.53e-06,0.0,0 STARLINK-6041,1 56478U 23064AG  24184.19132456  .00000253  00000-0  29011-4 0  9992,2 56478  69.9981 236.3425 0003542 267.4527  92.6227 14.98323080 63900,6950.214,96.107,574.541,569.618,0.0
56478.0,STARLINK-6041,PAYLOAD,2024-07-02 12:36:09,14.98335075,0.0003521,69.9981,235.5007,267.7224,92.3532,0.00015257,1.728e-05,0.0,0 STARLINK-6041,1 56478U 23064AG  24184.52511399  .00001728  00000-0  15257-3 0  9990,2 56478  69.9981 235.5007 0003521 267.7224  92.3532 14.98335075 63959,6950.177,96.107,574.489,569.595,0.0
56478.0,STARLINK-6041,PAYLOAD,2024-07-02 14:12:17,14.98335524,0.000352,69.9981,235.3324,267.6964,92.3792,0.00015436,1.749e-05,0.0,0 STARLINK-6041,1 56478U 23064AG  24184.59187344  .00001749  00000-0  15436-3 0  9998,2 56478  69.9981 235.3324 0003520 267.6964  92.3792 14.98335524 63607,6950.176,96.107,574.487,569.594,0.0
56478.0,STARLINK-6041,PAYLOAD,2024-07-02 22:12:58,14.98326898,0.000351,69.998,234.4908,267.34,92.7357,-3.2262e-07,-9.7e-07,0.0,0 STARLINK-6041,1 56478U 23064AG  24184.92568249 -.00000097  00000-0 -32262-6 0  9998,2 56478  69.9980 234.4908 0003510 267.3400  92.7357 14.98326898 63655,6950.202,96.107,574.507,569.628,0.0
56478.0,STARLINK-6041,PAYLOAD,2024-07-03 04:37:31,14.98323894,0.0003515,69.998,233.8175,267.4744,92.6013,-4.2098e-05,-5.95e-06,0.0,0 STARLINK-6041,1 56478U 23064AG  24185.19272600 -.00000595  00000-0 -42098-4 0  9990,2 56478  69.9980 233.8175 0003515 267.4744  92.6013 14.98323894 64057,6950.212,96.107,574.52,569.634,0.0
56478.0,STARLINK-6041,PAYLOAD,2024-07-03 22:14:59,14.98331809,0.0003527,69.998,231.9659,268.4854,91.5901,-5.6457e-05,-7.67e-06,0.0,0 STARLINK-6041,1 56478U 23064AG  24185.92708161 -.00000767  00000-0 -56457-4 0  9992,2 56478  69.9980 231.9659 0003527 268.4854  91.5901 14.98331809 63800,6950.187,96.107,574.504,569.601,0.0
56478.0,STARLINK-6041,PAYLOAD,2024-07-04 04:39:32,14.98325518,0.0003499,69.998,231.2926,268.7792,91.2967,5.3491e-05,5.45e-06,0.0,0 STARLINK-6041,1 56478U 23064AG  24186.19412306  .00000545  00000-0  53491-4 0  9992,2 56478  69.9980 231.2926 0003499 268.7792  91.2967 14.98325518 64206,6950.207,96.107,574.504,569.64,0.0
56478.0,STARLINK-6041,PAYLOAD,2024-07-04 14:16:20,14.98333617,0.000352,69.998,230.2827,269.8223,90.2533,3.6666e-05,3.44e-06,0.0,0 STARLINK-6041,1 56478U 23064AG  24186.59467844  .00000344  00000-0  36666-4 0  9995,2 56478  69.9980 230.2827 0003520 269.8223  90.2533 14.98333617 63904,6950.182,96.107,574.493,569.6,0.0
56478.0,STARLINK-6041,PAYLOAD,2024-07-04 22:17:00,14.98332262,0.0003524,69.998,229.4407,270.1968,89.8787,-4.7014e-05,-6.54e-06,0.0,0 STARLINK-6041,1 56478U 23064AG  24186.92848041 -.00000654  00000-0 -47014-4 0  9999,2 56478  69.9980 229.4407 0003524 270.1968  89.8787 14.98332262 63958,6950.186,96.107,574.5,569.602,0.0
56478.0,STARLINK-6041,PAYLOAD,2024-07-05 04:41:33,14.98326642,0.0003527,69.998,228.7674,270.2809,89.7946,6.4407e-05,6.75e-06,0.0,0 STARLINK-6041,1 56478U 23064AG  24187.19552126  .00000675  00000-0  64407-4 0  9991,2 56478  69.9980 228.7674 0003527 270.2809  89.7946 14.98326642 64350,6950.203,96.107,574.52,569.617,0.0
56478.0,STARLINK-6041,PAYLOAD,2024-07-05 14:18:21,14.98332311,0.0003525,69.998,227.7573,270.1571,89.9184,8.798e-05,9.57e-06,0.0,0 STARLINK-6041,1 56478U 23064AG  24187.59607707  .00000957  00000-0  87980-4 0  9995,2 56478  69.9980 227.7573 0003525 270.1571  89.9184 14.98332311 64053,6950.186,96.107,574.501,569.601,0.0
56478.0,STARLINK-6041,PAYLOAD,2024-07-05 20:42:53,14.9833443,0.000353,69.9979,227.0839,270.1695,89.9059,7.3963e-05,7.9e-06,0.0,0 STARLINK-6041,1 56478U 23064AG  24187.86311535  .00000790  00000-0  73963-4 0  9997,2 56478  69.9979 227.0839 0003530 270.1695  89.9059 14.98334430 64451,6950.179,96.107,574.498,569.591,0.0
56478.0,STARLINK-6041,PAYLOAD,2024-07-05 22:19:01,14.98329641,0.0003521,69.9979,226.9156,270.0623,90.0133,9.4509e-06,2e-07,0.0,0 STARLINK-6041,1 56478U 23064AG  24187.92988033  .00000020  00000-0  94509-5 0  9993,2 56478  69.9979 226.9156 0003521 270.0623  90.0133 14.98329641 64107,6950.194,96.107,574.506,569.612,0.0
